NORAD_CAT_ID,OBJECT_NAME,OBJECT_TYPE,EPOCH,MEAN_MOTION,ECCENTRICITY,INCLINATION,RA_OF_ASC_NODE,ARG_OF_PERICENTER,MEAN_ANOMALY,BSTAR,MEAN_MOTION_DOT,MEAN_MOTION_DDOT,TLE_LINE0,TLE_LINE1,TLE_LINE2,SEMIMAJOR_AXIS,PERIOD,APOGEE,PERIGEE,DECAYED
49427.0,STARLINK-3131,PAYLOAD,2022-01-01 14:00:01,15.45653145,0.0001085999999999,53.2173,252.3396,87.1495,350.4254,-0.014519,-0.0065438,0.0,0 STARLINK-3131,1 49427U 21104V   22001.58335648 -.00654380  00000-0 -14519-1 0  9990,2 49427  53.2173 252.3396 0001086  87.1495 350.4254 15.45653145  3687,6807.597,93.164,430.201,428.722,0.0
49427.0,STARLINK-3131,PAYLOAD,2022-01-01 22:00:00,15.45186564,0.0001453,53.2173,250.7602,54.2362,78.8172,-0.014745,-0.0065405,0.0,0 STARLINK-3131,1 49427U 21104V   22001.91667824 -.00654050  00000-0 -14745-1 0  9996,2 49427  53.2173 250.7602 0001453  54.2362  78.8172 15.45186564  3670,6808.967,93.193,431.821,429.843,0.0
49427.0,STARLINK-3131,PAYLOAD,2022-01-02 14:00:01,15.44253464,0.0001319,53.2174,247.5996,72.4524,170.00799999999995,-0.015223,-0.00653973,0.0,0 STARLINK-3131,1 49427U 21104V   22002.58334491 -.00653973  00000-0 -15223-1 0  9996,2 49427  53.2174 247.5996 0001319  72.4524 170.0080 15.44253464  3670,6811.71,93.249,434.473,432.676,0.0
49427.0,STARLINK-3131,PAYLOAD,2022-01-02 22:00:00,15.43786388,0.0001366,53.2175,246.0238,59.9769,236.3444,-0.0154389999999999,-0.00660682,0.0,0 STARLINK-3131,1 49427U 21104V   22002.91667824 -.00660682  00000-0 -15439-1 0  9996,2 49427  53.2175 246.0238 0001366  59.9769 236.3444 15.43786388  3672,6813.083000000001,93.277,435.879,434.018,0.0
49427.0,STARLINK-3131,PAYLOAD,2022-01-03 06:00:00,15.43322032,0.0001107999999999,53.2174,244.447,84.6597,264.9623,-0.01577,-0.00664002,0.0,0 STARLINK-3131,1 49427U 21104V   22003.25001157 -.00664002  00000-0 -15770-1 0  9993,2 49427  53.2174 244.4470 0001108  84.6597 264.9623 15.43322032  9246,6814.45,93.305,437.07,435.56,0.0
49427.0,STARLINK-3131,PAYLOAD,2022-01-03 14:00:01,15.42852748,0.0001164,53.2175,242.87,65.4724,336.8925,-0.015922,-0.0066012,0.0,0 STARLINK-3131,1 49427U 21104V   22003.58334491 -.00660120  00000-0 -15922-1 0  9995,2 49427  53.2175 242.8700 0001164  65.4724 336.8925 15.42852748  3672,6815.831999999999,93.334,438.49,436.903,0.0
49427.0,STARLINK-3131,PAYLOAD,2022-01-03 22:00:00,15.42388378,0.000147,53.2175,241.2976,48.5717,45.9711,-0.01626,-0.00663442,0.0,0 STARLINK-3131,1 49427U 21104V   22003.91667824 -.00663442  00000-0 -16260-1 0  9997,2 49427  53.2175 241.2976 0001470  48.5717  45.9711 15.42388378  3689,6817.2,93.362,440.067,438.06300000000016,0.0
49427.0,STARLINK-3131,PAYLOAD,2022-01-04 12:00:00,15.41570072,0.0001230999999999,53.2174,238.5434,61.6256,32.8852,-0.016633,-0.00660435,0.0,0 STARLINK-3131,1 49427U 21104V   22004.50001157 -.00660435  00000-0 -16633-1 0  9997,2 49427  53.2174 238.5434 0001231  61.6256  32.8852 15.41570072  9449,6819.611999999999,93.411,442.316,440.637,0.0
49427.0,STARLINK-3131,PAYLOAD,2022-01-04 14:00:01,15.41338371,0.0001591,53.2168,238.1486,62.8626,134.4224,-0.01258,-0.00499693,0.0,0 STARLINK-3131,1 49427U 21104V   22004.58334491 -.00499693  00000-0 -12580-1 0  9998,2 49427  53.2168 238.1486 0001591  62.8626 134.4224 15.41338371  3651,6820.295,93.425,443.245,441.075,0.0
49427.0,STARLINK-3131,PAYLOAD,2022-01-04 20:56:23,15.42153066,0.0001557,53.2183,236.7762,34.8924,325.2184,-0.0041614,-0.00177335,0.0,0 STARLINK-3131,1 49427U 21104V   22004.87249640 -.00177335  00000-0 -41614-2 0  9998,2 49427  53.2183 236.7762 0001557  34.8924 325.2184 15.42153066  8401,6817.893,93.376,440.82,438.697,0.0
49427.0,STARLINK-3131,PAYLOAD,2022-01-05 14:00:01,15.40052813,0.0001211,53.2174,233.4406,67.7954,279.2405,-0.017443,-0.00658559,0.0,0 STARLINK-3131,1 49427U 21104V   22005.58334491 -.00658559  00000-0 -17443-1 0  9990,2 49427  53.2174 233.4406 0001211  67.7954 279.2405 15.40052813  9608,6824.09,93.503,446.782,445.129,0.0
49427.0,STARLINK-3131,PAYLOAD,2022-01-05 22:00:00,15.3958992,0.0001399,53.2174,231.8749,50.9082,344.9414,-0.017897,-0.00664965,0.0,0 STARLINK-3131,1 49427U 21104V   22005.91667824 -.00664965  00000-0 -17897-1 0  9997,2 49427  53.2174 231.8749 0001399  50.9082 344.9414 15.39589920  3676,6825.458000000001,93.531,448.278,446.36800000000005,0.0
49427.0,STARLINK-3131,PAYLOAD,2022-01-06 14:00:01,15.38575838,0.0001483,53.2168,228.739,50.5057,81.3379,-0.015172,-0.00546537,0.0,0 STARLINK-3131,1 49427U 21104V   22006.58334491 -.00546537  00000-0 -15172-1 0  9990,2 49427  53.2168 228.7390 0001483  50.5057  81.3379 15.38575838  9768,6828.456999999999,93.593,451.335,449.309,0.0
49427.0,STARLINK-3131,PAYLOAD,2022-01-06 22:00:00,15.38188073,0.0001585999999999,53.2172,227.1784,52.3911,126.5445,-0.018625,-0.00661112,0.0,0 STARLINK-3131,1 49427U 21104V   22006.91667824 -.00661112  00000-0 -18625-1 0  9999,2 49427  53.2172 227.1784 0001586  52.3911 126.5445 15.38188073  9819,6829.604,93.617,452.55300000000005,450.386,0.0
49427.0,STARLINK-3131,PAYLOAD,2022-01-07 14:00:01,15.37153302,0.0001315,53.2169,224.049,72.3157,199.2626,-0.014986,-0.00517284,0.0,0 STARLINK-3131,1 49427U 21104V   22007.58334491 -.00517284  00000-0 -14986-1 0  9990,2 49427  53.2169 224.0490 0001315  72.3157 199.2626 15.37153302  3648,6832.669,93.68,455.4330000000001,453.636,0.0
49427.0,STARLINK-3131,PAYLOAD,2022-01-07 20:00:01,15.36903176,0.000152,53.2173,222.8818,59.0087,156.6566,-0.019331,-0.00658205,0.0,0 STARLINK-3131,1 49427U 21104V   22007.83334491 -.00658205  00000-0 -19331-1 0  9996,2 49427  53.2173 222.8818 0001520  59.0087 156.6566 15.36903176  3657,6833.41,93.695,456.314,454.237,0.0
49427.0,STARLINK-3131,PAYLOAD,2022-01-08 14:00:01,15.35854069,0.0001271,53.2175,219.3714,60.9137,345.2854,-0.02,-0.00658208,0.0,0 STARLINK-3131,1 49427U 21104V   22008.58334491 -.00658208  00000-0 -20000-1 0  9997,2 49427  53.2175 219.3714 0001271  60.9137 345.2854 15.35854069  3645,6836.522,93.759,459.256,457.518,0.0
49427.0,STARLINK-3131,PAYLOAD,2022-01-08 22:00:00,15.35390299,0.0001519,53.2175,217.8156,48.913,41.0546,-0.020482,-0.00663694,0.0,0 STARLINK-3131,1 49427U 21104V   22008.91667824 -.00663694  00000-0 -20482-1 0  9992,2 49427  53.2175 217.8156 0001519  48.9130  41.0546 15.35390299 10122,6837.898,93.787,460.802,458.725,0.0
49427.0,STARLINK-3131,PAYLOAD,2022-01-09 14:00:01,15.3445548,0.0001571,53.2177,214.7016,54.6184,121.2099,-0.020969,-0.00659707,0.0,0 STARLINK-3131,1 49427U 21104V   22009.58334491 -.00659707  00000-0 -20969-1 0  9997,2 49427  53.2177 214.7016 0001571  54.6184 121.2099 15.34455480  3653,6840.675,93.844,463.615,461.466,0.0
49427.0,STARLINK-3131,PAYLOAD,2022-01-09 22:00:00,15.33988155,0.0001633,53.2176,213.149,52.6095,165.3068,-0.02126,-0.00659015,0.0,0 STARLINK-3131,1 49427U 21104V   22009.91667824 -.00659015  00000-0 -21260-1 0  9990,2 49427  53.2176 213.1490 0001633  52.6095 165.3068 15.33988155  3664,6842.065,93.873,465.047,462.812,0.0
49427.0,STARLINK-3131,PAYLOAD,2022-01-10 14:00:01,15.32961605,0.0001286999999999,53.2172,210.0397,60.6573,239.8074,-0.017555,-0.00528873,0.0,0 STARLINK-3131,1 49427U 21104V   22010.58334491 -.00528873  00000-0 -17555-1 0  9995,2 49427  53.2172 210.0397 0001287  60.6573 239.8074 15.32961605  3638,6845.119000000002,93.936,467.865,466.103,0.0
49427.0,STARLINK-3131,PAYLOAD,2022-01-10 22:00:00,15.32589657,0.0001438,53.2177,208.4924,53.3201,287.498,-0.022309,-0.0066131,0.0,0 STARLINK-3131,1 49427U 21104V   22010.91667824 -.00661310  00000-0 -22309-1 0  9998,2 49427  53.2177 208.4924 0001438  53.3201 287.4980 15.32589657  3666,6846.226,93.959,469.076,467.107,0.0
49427.0,STARLINK-3131,PAYLOAD,2022-01-11 06:00:00,15.32123212,0.000121,53.2176,206.9409,66.5779,314.0872,-0.022658,-0.00661779,0.0,0 STARLINK-3131,1 49427U 21104V   22011.25001157 -.00661779  00000-0 -22658-1 0  9993,2 49427  53.2176 206.9409 0001210  66.5779 314.0872 15.32123212 10475,6847.616,93.987,470.309,468.652,0.0
49427.0,STARLINK-3131,PAYLOAD,2022-01-11 14:00:01,15.3165574,0.0001431,53.2177,205.3918,50.2733,9.6776,-0.022909,-0.00659537,0.0,0 STARLINK-3131,1 49427U 21104V   22011.58334491 -.00659537  00000-0 -22909-1 0  9997,2 49427  53.2177 205.3918 0001431  50.2733   9.6776 15.31655740  3656,6849.009,94.016,471.854,469.894,0.0
49427.0,STARLINK-3131,PAYLOAD,2022-01-11 22:00:00,15.31188802,0.000154,53.2176,203.8458,49.0257,49.6493,-0.023252,-0.00659682,0.0,0 STARLINK-3131,1 49427U 21104V   22011.91667824 -.00659682  00000-0 -23252-1 0  9996,2 49427  53.2176 203.8458 0001540  49.0257  49.6493 15.31188802  3644,6850.401,94.045,473.321,471.211,0.0
49427.0,STARLINK-3131,PAYLOAD,2022-01-12 14:00:01,15.30255426,0.0001564999999999,53.2178,200.7519,54.8901,119.5535,-0.023893,-0.00658486,0.0,0 STARLINK-3131,1 49427U 21104V   22012.58334491 -.00658486  00000-0 -23893-1 0  9993,2 49427  53.2178 200.7519 0001565  54.8901 119.5535 15.30255426  3670,6853.187,94.102,476.124,473.979,0.0
49427.0,STARLINK-3131,PAYLOAD,2022-01-12 16:00:00,15.30138848,0.0001489,53.2176,200.3661,57.3509,216.4057,-0.023987,-0.0065866,0.0,0 STARLINK-3131,1 49427U 21104V   22012.66667824 -.00658660  00000-0 -23987-1 0  9999,2 49427  53.2176 200.3661 0001489  57.3509 216.4057 15.30138848 10693,6853.535,94.109,476.42,474.379,0.0
49427.0,STARLINK-3131,PAYLOAD,2022-01-13 14:00:01,15.28856459,0.0001446,53.2177,196.1216,60.4593,223.4307,-0.024988,-0.00659352,0.0,0 STARLINK-3131,1 49427U 21104V   22013.58334491 -.00659352  00000-0 -24988-1 0  9993,2 49427  53.2177 196.1216 0001446  60.4593 223.4307 15.28856459  3637,6857.3669999999975,94.188,480.223,478.24,0.0
49427.0,STARLINK-3131,PAYLOAD,2022-01-13 22:00:00,15.283882,0.0001304,53.2175,194.582,70.3206,248.9302,-0.02525,-0.00656887,0.0,0 STARLINK-3131,1 49427U 21104V   22013.91667824 -.00656887  00000-0 -25250-1 0  9992,2 49427  53.2175 194.5820 0001304  70.3206 248.9302 15.28388200 10888,6858.767,94.217,481.527,479.73800000000006,0.0
